STARLINK-30069          
1 56834U 23079M   26067.48212902 -.00002416  00000+0 -80472-4 0  9995
2 56834  42.9986 110.4464 0000469 272.6695  87.4103 15.26726881152740
STARLINK-33958          
1 63850U 25093Q   26068.39605712  .00030737  00000+0  11217-2 0  9999
2 63850  43.0022  79.8737 0001471 260.8576  99.2109 15.27582198 47765
